[{"OBJECT_NAME":"STARLINK-5529","OBJECT_ID":"2023-064AZ","EPOCH":"2026-03-09T11:37:28.058592","MEAN_MOTION":14.98326175,"ECCENTRICITY":0.00033241,"INCLINATION":69.9996,"RA_OF_ASC_NODE":104.9006,"ARG_OF_PERICENTER":264.4846,"MEAN_ANOMALY":95.5934,"EPHEMERIS_TYPE":0,"CLASSIFICATION_TYPE":"U","NORAD_CAT_ID":56495,"ELEMENT_SET_NO":999,"REV_AT_EPOCH":15620,"BSTAR":2.0532138e-5,"MEAN_MOTION_DOT":1.52e-6,"MEAN_MOTION_DDOT":0},{"OBJECT_NAME":"CZ-4C R\/B","OBJECT_ID":"2021-079B","EPOCH":"2026-03-09T14:04:29.438112","MEAN_MOTION":15.08928015,"ECCENTRICITY":0.0108377,"INCLINATION":98.3883,"RA_OF_ASC_NODE":282.6111,"ARG_OF_PERICENTER":26.1585,"MEAN_ANOMALY":334.506,"EPHEMERIS_TYPE":0,"CLASSIFICATION_TYPE":"U","NORAD_CAT_ID":49123,"ELEMENT_SET_NO":999,"REV_AT_EPOCH":24640,"BSTAR":0.00023549,"MEAN_MOTION_DOT":4.178e-5,"MEAN_MOTION_DDOT":0}]
